[{"id":1,"Strasse":"Heath","PLZ":null,"Ort":"Xinbu","Latitude":23.1243988,"Longitude":113.2475087},
{"id":2,"Strasse":"American","PLZ":null,"Ort":"Sambungjaya","Latitude":-7.356466,"Longitude":108.207518},
{"id":3,"Strasse":"5th","PLZ":null,"Ort":"Xiangyang","Latitude":32.009016,"Longitude":112.122426},
{"id":4,"Strasse":"Kedzie","PLZ":"11805","Ort":"Punta Cana","Latitude":18.8539206,"Longitude":-71.3009387},
{"id":5,"Strasse":"Warrior","PLZ":"356012","Ort":"Rasshevatskaya","Latitude":45.5695819,"Longitude":41.030903},
{"id":6,"Strasse":"Lakewood","PLZ":null,"Ort":"Zhangxiang","Latitude":31.3211873,"Longitude":121.2478052},
{"id":7,"Strasse":"Kennedy","PLZ":null,"Ort":"Diego de Almagro","Latitude":-26.3902488,"Longitude":-70.0475302},
{"id":8,"Strasse":"Garrison","PLZ":null,"Ort":"Shajing","Latitude":22.720595,"Longitude":113.829667},
{"id":9,"Strasse":"Merchant","PLZ":null,"Ort":"Farasān","Latitude":16.701895,"Longitude":42.120984},
{"id":10,"Strasse":"Northwestern","PLZ":null,"Ort":"Nandaime","Latitude":11.7565106,"Longitude":-86.0504111},
{"id":11,"Strasse":"Maywood","PLZ":"96330-000","Ort":"Arroio Grande","Latitude":-32.2331548,"Longitude":-53.0866941},
{"id":12,"Strasse":"Oriole","PLZ":"2460-825","Ort":"Montes","Latitude":39.61335,"Longitude":-8.9519943},
{"id":13,"Strasse":"Warner","PLZ":"H4R","Ort":"Chase","Latitude":50.8137495,"Longitude":-119.6934422},
{"id":14,"Strasse":"Havey","PLZ":null,"Ort":"Caozhen","Latitude":31.34778,"Longitude":121.536152},
{"id":15,"Strasse":"Thierer","PLZ":"99-307","Ort":"Strzelce","Latitude":52.3140368,"Longitude":19.4070384},
{"id":16,"Strasse":"Manufacturers","PLZ":"25508","Ort":"Kuantan","Latitude":3.9671435,"Longitude":103.40391},
{"id":17,"Strasse":"Birchwood","PLZ":"87-222","Ort":"Książki","Latitude":53.326905,"Longitude":19.0654716},
{"id":18,"Strasse":"Mayer","PLZ":null,"Ort":"Jorong Lauk","Latitude":-8.5666,"Longitude":116.5751},
{"id":19,"Strasse":"Pawling","PLZ":"54801","Ort":"Savitaipale","Latitude":60.2213963,"Longitude":25.0983017},
{"id":20,"Strasse":"Schmedeman","PLZ":null,"Ort":"Bejuco","Latitude":8.606157,"Longitude":-79.8884819}]